{"type": "FeatureCollection", "features": [ {"type": "Feature", "properties": {"norad_id": 28659, "name": "DIRECTV 8", "group": "intelsat", "lat": 0.038344108561405445, "lon": 57.2386233408042, "alt_km": 35795.32408080784, "timestamp": "2025-12-21T05:44:51.243419+00:00", "meta": {"OBJECT_NAME": "DIRECTV 8", "OBJECT_ID": "2005-019A", "EPOCH": "2025-12-20T21:13:28.589088", "MEAN_MOTION": 1.00270149, "ECCENTRICITY": 0.00028918, "INCLINATION": 0.0248, "RA_OF_ASC_NODE": 14.0351, "ARG_OF_PERICENTER": 267.3604, "MEAN_ANOMALY": 7.6363, "EPHEMERIS_TYPE": 0, "CLASSIFICATION_TYPE": "U", "NORAD_CAT_ID": 28659, "ELEMENT_SET_NO": 999, "REV_AT_EPOCH": 7528, "BSTAR": 0, "MEAN_MOTION_DOT": 0, "MEAN_MOTION_DDOT": 0}, "tle": {"line1": "1 28659U 05019A   25354.88435867  .00000000  00000+0  00000+0 0  9991", "line2": "2 28659   0.0248  14.0351 0002891 267.3604   7.6363  1.00270149 75289"}}, "geometry": {"type": "Point", "coordinates": [57.2386233408042, 0.038344108561405445]}}, {"type": "Feature", "properties": {"norad_id": 28702, "name": "GALAXY 28 (G-28)", "group": "intelsat", "lat": 0.3434111209584651, "lon": 87.57985084760189, "alt_km": 35798.65774740866, "timestamp": "2025-12-21T05:44:51.243431+00:00", "meta": {"OBJECT_NAME": "GALAXY 28 (G-28)", "OBJECT_ID": "2005-022A", "EPOCH": "2025-12-20T00:49:30.482112", "MEAN_MOTION": 1.00271047, "ECCENTRICITY": 0.00029384, "INCLINATION": 2.8382, "RA_OF_ASC_NODE": 81.1982, "ARG_OF_PERICENTER": 194.0723, "MEAN_ANOMALY": 97.2981, "EPHEMERIS_TYPE": 0, "CLASSIFICATION_TYPE": "U", "NORAD_CAT_ID": 28702, "ELEMENT_SET_NO": 999, "REV_AT_EPOCH": 5017, "BSTAR": 0, "MEAN_MOTION_DOT": -1.65e-06, "MEAN_MOTION_DDOT": 0}, "tle": {"line1": "1 28702U 05022A   25354.03438058 -.00000165  00000+0  00000+0 0  9999", "line2": "2 28702   2.8382  81.1982 0002938 194.0723  97.2981  1.00271047 50172"}}, "geometry": {"type": "Point", "coordinates": [87.57985084760189, 0.3434111209584651]}}, {"type": "Feature", "properties": {"norad_id": 29236, "name": "GALAXY 16 (G-16)", "group": "intelsat", "lat": 0.0036772346943381535, "lon": 77.26707940061918, "alt_km": 35796.451350359894, "timestamp": "2025-12-21T05:44:51.243443+00:00", "meta": {"OBJECT_NAME": "GALAXY 16 (G-16)", "OBJECT_ID": "2006-023A", "EPOCH": "2025-12-20T21:19:13.039104", "MEAN_MOTION": 1.0027104, "ECCENTRICITY": 0.00024654, "INCLINATION": 0.0071, "RA_OF_ASC_NODE": 264.2554, "ARG_OF_PERICENTER": 6.7479, "MEAN_ANOMALY": 39.5114, "EPHEMERIS_TYPE": 0, "CLASSIFICATION_TYPE": "U", "NORAD_CAT_ID": 29236, "ELEMENT_SET_NO": 999, "REV_AT_EPOCH": 7118, "BSTAR": 0, "MEAN_MOTION_DOT": -1.04e-06, "MEAN_MOTION_DDOT": 0}, "tle": {"line1": "1 29236U 06023A   25354.88834536 -.00000104  00000+0  00000+0 0  9991", "line2": "2 29236   0.0071 264.2554 0002465   6.7479  39.5114  1.00271040 71185"}}, "geometry": {"type": "Point", "coordinates": [77.26707940061918, 0.0036772346943381535]}}, {"type": "Feature", "properties": {"norad_id": 29494, "name": "DIRECTV 9S", "group": "intelsat", "lat": -0.24910350038231174, "lon": 75.07331380150445, "alt_km": 35797.37514303182, "timestamp": "2025-12-21T05:44:51.243455+00:00", "meta": {"OBJECT_NAME": "DIRECTV 9S", "OBJECT_ID": "2006-043A", "EPOCH": "2025-12-20T21:18:35.599392", "MEAN_MOTION": 1.00271576, "ECCENTRICITY": 0.00028252, "INCLINATION": 1.9599, "RA_OF_ASC_NODE": 83.1277, "ARG_OF_PERICENTER": 192.7992, "MEAN_ANOMALY": 32.2256, "EPHEMERIS_TYPE": 0, "CLASSIFICATION_TYPE": "U", "NORAD_CAT_ID": 29494, "ELEMENT_SET_NO": 999, "REV_AT_EPOCH": 4959, "BSTAR": 0, "MEAN_MOTION_DOT": -9.2e-07, "MEAN_MOTION_DDOT": 0}, "tle": {"line1": "1 29494U 06043A   25354.88791203 -.00000092  00000+0  00000+0 0  9998", "line2": "2 29494   1.9599  83.1277 0002825 192.7992  32.2256  1.00271576 49593"}}, "geometry": {"type": "Point", "coordinates": [75.07331380150445, -0.24910350038231174]}}, {"type": "Feature", "properties": {"norad_id": 31307, "name": "GALAXY 17 (G-17)", "group": "intelsat", "lat": 0.4245077101347728, "lon": 91.26522018761014, "alt_km": 35807.837094684655, "timestamp": "2025-12-21T05:44:51.243470+00:00", "meta": {"OBJECT_NAME": "GALAXY 17 (G-17)", "OBJECT_ID": "2007-016B", "EPOCH": "2025-12-20T21:23:12.657408", "MEAN_MOTION": 1.00270194, "ECCENTRICITY": 0.00053389, "INCLINATION": 2.5191, "RA_OF_ASC_NODE": 82.196, "ARG_OF_PERICENTER": 169.6137, "MEAN_ANOMALY": 73.7388, "EPHEMERIS_TYPE": 0, "CLASSIFICATION_TYPE": "U", "NORAD_CAT_ID": 31307, "ELEMENT_SET_NO": 999, "REV_AT_EPOCH": 6801, "BSTAR": 0, "MEAN_MOTION_DOT": -1.85e-06, "MEAN_MOTION_DDOT": 0}, "tle": {"line1": "1 31307U 07016B   25354.89111872 -.00000185  00000+0  00000+0 0  9997", "line2": "2 31307   2.5191  82.1960 0005338 169.6137  73.7388  1.00270194 68017"}}, "geometry": {"type": "Point", "coordinates": [91.26522018761014, 0.4245077101347728]}}, {"type": "Feature", "properties": {"norad_id": 31862, "name": "DIRECTV 10", "group": "intelsat", "lat": -0.0020884632419822537, "lon": 73.45844099004405, "alt_km": 35787.00354167093, "timestamp": "2025-12-21T05:44:51.243486+00:00", "meta": {"OBJECT_NAME": "DIRECTV 10", "OBJECT_ID": "2007-032A", "EPOCH": "2025-12-20T21:18:05.647104", "MEAN_MOTION": 1.00270377, "ECCENTRICITY": 2.729e-05, "INCLINATION": 0.0073, "RA_OF_ASC_NODE": 111.6707, "ARG_OF_PERICENTER": 78.7977, "MEAN_ANOMALY": 115.9664, "EPHEMERIS_TYPE": 0, "CLASSIFICATION_TYPE": "U", "NORAD_CAT_ID": 31862, "ELEMENT_SET_NO": 999, "REV_AT_EPOCH": 4380, "BSTAR": 0, "MEAN_MOTION_DOT": -8e-07, "MEAN_MOTION_DDOT": 0}, "tle": {"line1": "1 31862U 07032A   25354.88756536 -.00000080  00000+0  00000+0 0  9996", "line2": "2 31862   0.0073 111.6707 0000272  78.7977 115.9664  1.00270377 43805"}}, "geometry": {"type": "Point", "coordinates": [73.45844099004405, -0.0020884632419822537]}}, {"type": "Feature", "properties": {"norad_id": 32253, "name": "INTELSAT 11 (IS-11)", "group": "intelsat", "lat": -3.012388991172826, "lon": 4.687461726131195, "alt_km": 36146.889577524074, "timestamp": "2025-12-21T05:44:51.243497+00:00", "meta": {"OBJECT_NAME": "INTELSAT 11 (IS-11)", "OBJECT_ID": "2007-044B", "EPOCH": "2025-12-20T19:16:17.312160", "MEAN_MOTION": 0.99052323, "ECCENTRICITY": 0.00085352, "INCLINATION": 3.0999, "RA_OF_ASC_NODE": 80.8877, "ARG_OF_PERICENTER": 169.061, "MEAN_ANOMALY": 318.9785, "EPHEMERIS_TYPE": 0, "CLASSIFICATION_TYPE": "U", "NORAD_CAT_ID": 32253, "ELEMENT_SET_NO": 999, "REV_AT_EPOCH": 6668, "BSTAR": 0, "MEAN_MOTION_DOT": -7e-07, "MEAN_MOTION_DDOT": 0}, "tle": {"line1": "1 32253U 07044B   25354.80297815 -.00000070  00000+0  00000+0 0  9995", "line2": "2 32253   3.0999  80.8877 0008535 169.0610 318.9785  0.99052323 66689"}}, "geometry": {"type": "Point", "coordinates": [4.687461726131195, -3.012388991172826]}}, {"type": "Feature", "properties": {"norad_id": 32388, "name": "HORIZONS-2", "group": "intelsat", "lat": 0.7455711265931885, "lon": 102.46755845604892, "alt_km": 35805.454164798706, "timestamp": "2025-12-21T05:44:51.243509+00:00", "meta": {"OBJECT_NAME": "HORIZONS-2", "OBJECT_ID": "2007-063B", "EPOCH": "2025-12-20T21:26:19.857696", "MEAN_MOTION": 1.00271536, "ECCENTRICITY": 0.00045896, "INCLINATION": 2.1416, "RA_OF_ASC_NODE": 82.8744, "ARG_OF_PERICENTER": 194.2887, "MEAN_ANOMALY": 60.3571, "EPHEMERIS_TYPE": 0, "CLASSIFICATION_TYPE": "U", "NORAD_CAT_ID": 32388, "ELEMENT_SET_NO": 999, "REV_AT_EPOCH": 6602, "BSTAR": 0, "MEAN_MOTION_DOT": -2.32e-06, "MEAN_MOTION_DDOT": 0}, "tle": {"line1": "1 32388U 07063B   25354.89328539 -.00000232  00000+0  00000+0 0  9992", "line2": "2 32388   2.1416  82.8744 0004589 194.2887  60.3571  1.00271536 66029"}}, "geometry": {"type": "Point", "coordinates": [102.46755845604892, 0.7455711265931885]}}, {"type": "Feature", "properties": {"norad_id": 32729, "name": "DIRECTV 11", "group": "intelsat", "lat": 0.019550670629968615, "lon": 77.07266408479452, "alt_km": 35783.834301950264, "timestamp": "2025-12-21T05:44:51.243521+00:00", "meta": {"OBJECT_NAME": "DIRECTV 11", "OBJECT_ID": "2008-013A", "EPOCH": "2025-12-20T21:19:05.550816", "MEAN_MOTION": 1.00274637, "ECCENTRICITY": 8.088e-05, "INCLINATION": 0.0493, "RA_OF_ASC_NODE": 192.0747, "ARG_OF_PERICENTER": 309.9417, "MEAN_ANOMALY": 168.2831, "EPHEMERIS_TYPE": 0, "CLASSIFICATION_TYPE": "U", "NORAD_CAT_ID": 32729, "ELEMENT_SET_NO": 999, "REV_AT_EPOCH": 4380, "BSTAR": 0, "MEAN_MOTION_DOT": -1.03e-06, "MEAN_MOTION_DDOT": 0}, "tle": {"line1": "1 32729U 08013A   25354.88825869 -.00000103  00000+0  00000+0 0  9991", "line2": "2 32729   0.0493 192.0747 0000808 309.9417 168.2831  1.00274637 43804"}}, "geometry": {"type": "Point", "coordinates": [77.07266408479452, 0.019550670629968615]}}, {"type": "Feature", "properties": {"norad_id": 32951, "name": "GALAXY 18 (G-18)", "group": "intelsat", "lat": 0.012299075959757726, "lon": 53.277104617778036, "alt_km": 35795.23376523662, "timestamp": "2025-12-21T05:44:51.243533+00:00", "meta": {"OBJECT_NAME": "GALAXY 18 (G-18)", "OBJECT_ID": "2008-024A", "EPOCH": "2025-12-20T17:46:55.869888", "MEAN_MOTION": 1.00271082, "ECCENTRICITY": 0.00028289, "INCLINATION": 0.016, "RA_OF_ASC_NODE": 56.7149, "ARG_OF_PERICENTER": 218.0405, "MEAN_ANOMALY": 318.5378, "EPHEMERIS_TYPE": 0, "CLASSIFICATION_TYPE": "U", "NORAD_CAT_ID": 32951, "ELEMENT_SET_NO": 999, "REV_AT_EPOCH": 4406, "BSTAR": 0, "MEAN_MOTION_DOT": 4.9e-07, "MEAN_MOTION_DDOT": 0}, "tle": {"line1": "1 32951U 08024A   25354.74092442  .00000049  00000+0  00000+0 0  9996", "line2": "2 32951   0.0160  56.7149 0002828 218.0405 318.5378  1.00271082 44061"}}, "geometry": {"type": "Point", "coordinates": [53.277104617778036, 0.012299075959757726]}}]}